H1 CPF  1  DGF 2022 04 04 13  5942 larets     NONE      
H2   304206 5557    27944 2022 03 31 00 00 00 2022 04 07 00 00 00    30 1 1  0 0 0
H5  0.0650
H9
10 0 59673  14400.000000  0       4197097.287      -1413453.562      -5519376.264
10 0 59673  14430.000000  0       4337111.625      -1525292.651      -5379656.963
10 0 59673  14460.000000  0       4472280.205      -1636200.887      -5234491.429
10 0 59673  14490.000000  0       4602470.721      -1746045.016      -5084025.646
10 0 59673  14520.000000  0       4727556.367      -1854692.231      -4928410.983
10 0 59673  14550.000000  0       4847415.970      -1962010.332      -4767804.045
10 0 59673  14580.000000  0       4961934.106      -2067867.882      -4602366.534
10 0 59673  14610.000000  0       5071001.222      -2172134.369      -4432265.083
10 0 59673  14640.000000  0       5174513.744      -2274680.359      -4257671.108
10 0 59673  14670.000000  0       5272374.185      -2375377.657      -4078760.633
10 0 59673  14700.000000  0       5364491.242      -2474099.462      -3895714.128
10 0 59673  14730.000000  0       5450779.887      -2570720.526      -3708716.324
10 0 59673  14760.000000  0       5531161.457      -2665117.311      -3517956.041
10 0 59673  14790.000000  0       5605563.729      -2757168.140      -3323625.995
10 0 59673  14820.000000  0       5673920.993      -2846753.354      -3125922.613
10 0 59673  14850.000000  0       5736174.116      -2933755.465      -2925045.834
10 0 59673  14880.000000  0       5792270.600      -3018059.305      -2721198.909
10 0 59673  14910.000000  0       5842164.632      -3099552.173      -2514588.199
10 0 59673  14940.000000  0       5885817.120      -3178123.986      -2305422.973
10 0 59673  14970.000000  0       5923195.738      -3253667.418      -2093915.194
10 0 59673  15000.000000  0       5954274.949      -3326078.044      -1880279.306
10 0 59673  15030.000000  0       5979036.028      -3395254.483      -1664732.020
10 0 59673  15060.000000  0       5997467.076      -3461098.532      -1447492.092
10 0 59673  15090.000000  0       6009563.024      -3523515.301      -1228780.095
10 0 59673  15120.000000  0       6015325.630      -3582413.344      -1008818.197
10 0 59673  15150.000000  0       6014763.465      -3637704.783       -787829.933
10 0 59673  15180.000000  0       6007891.899      -3689305.429       -566039.975
10 0 59673  15210.000000  0       5994733.070      -3737134.906       -343673.903
10 0 59673  15240.000000  0       5975315.858      -3781116.762       -120957.971
10 0 59673  15270.000000  0       5949675.838      -3821178.582        101881.129
10 0 59673  15300.000000  0       5917855.232      -3857252.097        324616.499
10 0 59673  15330.000000  0       5879902.854      -3889273.286        547021.272
10 0 59673  15360.000000  0       5835874.044      -3917182.473        768868.851
10 0 59673  15390.000000  0       5785830.595      -3940924.420        989933.146
10 0 59673  15420.000000  0       5729840.676      -3960448.411       1209988.813
10 0 59673  15450.000000  0       5667978.735      -3975708.333       1428811.486
10 0 59673  15480.000000  0       5600325.407      -3986662.749       1646178.017
10 0 59673  15510.000000  0       5526967.411      -3993274.966       1861866.697
10 0 59673  15540.000000  0       5447997.440      -3995513.102       2075657.492
10 0 59673  15570.000000  0       5363514.050      -3993350.149       2287332.268
10 0 59673  15600.000000  0       5273621.535      -3986764.022       2496675.020
10 0 59673  15630.000000  0       5178429.798      -3975737.610       2703472.099
10 0 59673  15660.000000  0       5078054.220      -3960258.816       2907512.429
10 0 59673  15690.000000  0       4972615.515      -3940320.589       3108587.730
10 0 59673  15720.000000  0       4862239.589      -3915920.957       3306492.732
10 0 59673  15750.000000  0       4747057.386      -3887063.049       3501025.384
10 0 59673  15780.000000  0       4627204.735      -3853755.115       3691987.063
10 0 59673  15810.000000  0       4502822.188      -3816010.538       3879182.785
10 0 59673  15840.000000  0       4374054.850      -3773847.844       4062421.404
10 0 59673  15870.000000  0       4241052.208      -3727290.701       4241515.810
10 0 59673  15900.000000  0       4103967.950      -3676367.910       4416283.127
10 0 59673  15930.000000  0       3962959.782      -3621113.391       4586544.892
10 0 59673  15960.000000  0       3818189.245      -3561566.163       4752127.242
10 0 59673  15990.000000  0       3669821.522      -3497770.322       4912861.082
10 0 59673  16020.000000  0       3518025.255      -3429775.007       5068582.264
10 0 59673  16050.000000  0       3362972.346      -3357634.363       5219131.748
10 0 59673  16080.000000  0       3204837.765      -3281407.503       5364355.770
10 0 59673  16110.000000  0       3043799.344      -3201158.454       5504105.994
10 0 59673  16140.000000  0       2880037.574      -3116956.107       5638239.664
10 0 59673  16170.000000  0       2713735.402      -3028874.154       5766619.747
10 0 59673  16200.000000  0       2545078.019      -2936991.021       5889115.068
10 0 59673  16230.000000  0       2374252.655      -2841389.805       6005600.441
10 0 59673  16260.000000  0       2201448.367      -2742158.188       6115956.798
10 0 59673  16290.000000  0       2026855.828      -2639388.365       6220071.300
10 0 59673  16320.000000  0       1850667.114      -2533176.951       6317837.455
10 0 59673  16350.000000  0       1673075.498      -2423624.891       6409155.221
10 0 59673  16380.000000  0       1494275.226      -2310837.366       6493931.112
10 0 59673  16410.000000  0       1314461.311      -2194923.688       6572078.285
10 0 59673  16440.000000  0       1133829.313      -2075997.192       6643516.629
10 0 59673  16470.000000  0        952575.127      -1954175.125       6708172.845
10 0 59673  16500.000000  0        770894.774      -1829578.532       6765980.514
10 0 59673  16530.000000  0        588984.185      -1702332.135       6816880.169
10 0 59673  16560.000000  0        407038.992      -1572564.208       6860819.352
10 0 59673  16590.000000  0        225254.315      -1440406.445       6897752.671
10 0 59673  16620.000000  0         43824.554      -1305993.825       6927641.844
10 0 59673  16650.000000  0       -137056.822      -1169464.476       6950455.735
10 0 59673  16680.000000  0       -317197.475      -1030959.531       6966170.386
10 0 59673  16710.000000  0       -496406.407       -890622.989       6974769.049
10 0 59673  16740.000000  0       -674494.158       -748601.561       6976242.203
10 0 59673  16770.000000  0       -851273.016       -605044.515       6970587.566
10 0 59673  16800.000000  0      -1026557.210       -460103.524       6957810.102
10 0 59673  16830.000000  0      -1200163.105       -313932.502       6937922.017
10 0 59673  16860.000000  0      -1371909.402       -166687.442       6910942.750
10 0 59673  16890.000000  0      -1541617.321        -18526.249       6876898.961
10 0 59673  16920.000000  0      -1709110.792        130391.425       6835824.506
10 0 59673  16950.000000  0      -1874216.641        279904.360       6787760.409
10 0 59673  16980.000000  0      -2036764.770        429849.937       6732754.826
10 0 59673  17010.000000  0      -2196588.338        580064.320       6670863.000
10 0 59673  17040.000000  0      -2353523.931        730382.627       6602147.209
10 0 59673  17070.000000  0      -2507411.738        880639.121       6526676.715
10 0 59673  17100.000000  0      -2658095.709       1030667.385       6444527.690
10 0 59673  17130.000000  0      -2805423.725       1180300.512       6355783.158
10 0 59673  17160.000000  0      -2949247.754       1329371.290       6260532.908
10 0 59673  17190.000000  0      -3089424.003       1477712.391       6158873.413
10 0 59673  17220.000000  0      -3225813.071       1625156.558       6050907.741
10 0 59673  17250.000000  0      -3358280.093       1771536.798       5936745.452
10 0 59673  17280.000000  0      -3486694.882       1916686.575       5816502.498
10 0 59673  17310.000000  0      -3610932.058       2060440.000       5690301.107
10 0 59673  17340.000000  0      -3730871.185       2202632.027       5558269.662
10 0 59673  17370.000000  0      -3846396.889       2343098.646       5420542.579
10 0 59673  17400.000000  0      -3957398.976       2481677.073       5277260.168
10 0 59673  17430.000000  0      -4063772.548       2618205.946       5128568.500
10 0 59673  17460.000000  0      -4165418.103       2752525.511       4974619.254
10 0 59673  17490.000000  0      -4262241.643       2884477.820       4815569.571
10 0 59673  17520.000000  0      -4354154.764       3013906.911       4651581.894
10 0 59673  17550.000000  0      -4441074.745       3140659.006       4482823.799
10 0 59673  17580.000000  0      -4522924.627       3264582.689       4309467.825
10 0 59673  17610.000000  0      -4599633.285       3385529.096       4131691.305
10 0 59673  17640.000000  0      -4671135.499       3503352.096       3949676.179
10 0 59673  17670.000000  0      -4737372.015       3617908.478       3763608.805
10 0 59673  17700.000000  0      -4798289.594       3729058.120       3573679.768
10 0 59673  17730.000000  0      -4853841.059       3836664.170       3380083.681
10 0 59673  17760.000000  0      -4903985.333       3940593.216       3183018.988
10 0 59673  17790.000000  0      -4948687.473       4040715.457       2982687.754
10 0 59673  17820.000000  0      -4987918.698       4136904.871       2779295.454
10 0 59673  17850.000000  0      -5021656.401       4229039.375       2573050.754
10 0 59673  17880.000000  0      -5049884.164       4317000.985       2364165.292
10 0 59673  17910.000000  0      -5072591.752       4400675.966       2152853.452
10 0 59673  17940.000000  0      -5089775.113       4479954.983       1939332.137
10 0 59673  17970.000000  0      -5101436.359       4554733.243       1723820.537
99
